{
  "type": "FeatureCollection",
  "features": [
    {
      "type": "Feature",
      "properties": {
        "norad_id": 66909,
        "name": "SILVERSAT",
        "group": "stations",
        "lat": 51.3242244413527,
        "lon": -178.07378630069482,
        "alt_km": 404.3721506713391,
        "timestamp": "2025-12-21T05:44:50.325021+00:00",
        "meta_object_name": "SILVERSAT",
        "meta_object_id": "1998-067XV",
        "meta_epoch": "2025-12-19T13:13:09.424128",
        "meta_mean_motion": 15.5251652,
        "meta_eccentricity": 0.0003839,
        "meta_inclination": 51.6306,
        "meta_ra_of_asc_node": 108.5226,
        "meta_arg_of_pericenter": 268.696,
        "meta_mean_anomaly": 91.359,
        "meta_ephemeris_type": 0,
        "meta_classification_type": "U",
        "meta_norad_cat_id": 66909,
        "meta_element_set_no": 999,
        "meta_rev_at_epoch": 267,
        "meta_bstar": 0.00079912,
        "meta_mean_motion_dot": 0.00049748,
        "meta_mean_motion_ddot": 0,
        "tle_line1": "1 66909U 98067XV  25353.55080352  .00049748  00000+0  79912-3 0  9998",
        "tle_line2": "2 66909  51.6306 108.5226 0003839 268.6960  91.3590 15.52516520  2671"
      },
      "geometry": {
        "type": "Point",
        "coordinates": [
          -178.07378630069482,
          51.3242244413527
        ]
      }
    },
    {
      "type": "Feature",
      "properties": {
        "norad_id": 66910,
        "name": "1998-067XW",
        "group": "stations",
        "lat": 51.34734948105641,
        "lon": -162.04260035884957,
        "alt_km": 404.47082693646007,
        "timestamp": "2025-12-21T05:44:50.325031+00:00",
        "meta_object_name": "1998-067XW",
        "meta_object_id": "1998-067XW",
        "meta_epoch": "2025-12-20T20:04:19.500384",
        "meta_mean_motion": 15.52648438,
        "meta_eccentricity": 0.00041993,
        "meta_inclination": 51.6307,
        "meta_ra_of_asc_node": 102.1064,
        "meta_arg_of_pericenter": 252.0731,
        "meta_mean_anomaly": 107.9801,
        "meta_ephemeris_type": 0,
        "meta_classification_type": "U",
        "meta_norad_cat_id": 66910,
        "meta_element_set_no": 999,
        "meta_rev_at_epoch": 287,
        "meta_bstar": 0.00071943778,
        "meta_mean_motion_dot": 0.0004493,
        "meta_mean_motion_ddot": 0,
        "tle_line1": "1 66910U 98067XW  25354.83633681  .00044930  00000+0  71944-3 0  9996",
        "tle_line2": "2 66910  51.6307 102.1064 0004199 252.0731 107.9801 15.52648438  2872"
      },
      "geometry": {
        "type": "Point",
        "coordinates": [
          -162.04260035884957,
          51.34734948105641
        ]
      }
    },
    {
      "type": "Feature",
      "properties": {
        "norad_id": 66911,
        "name": "1998-067XX",
        "group": "stations",
        "lat": 47.525149705708984,
        "lon": -139.85724994509994,
        "alt_km": 403.384328953317,
        "timestamp": "2025-12-21T05:44:50.325041+00:00",
        "meta_object_name": "1998-067XX",
        "meta_object_id": "1998-067XX",
        "meta_epoch": "2025-12-20T15:22:41.136960",
        "meta_mean_motion": 15.53054787,
        "meta_eccentricity": 0.00038763,
        "meta_inclination": 51.6313,
        "meta_ra_of_asc_node": 103.0498,
        "meta_arg_of_pericenter": 258.0568,
        "meta_mean_anomaly": 101.9988,
        "meta_ephemeris_type": 0,
        "meta_classification_type": "U",
        "meta_norad_cat_id": 66911,
        "meta_element_set_no": 999,
        "meta_rev_at_epoch": 283,
        "meta_bstar": 0.00081112736,
        "meta_mean_motion_dot": 0.00051512,
        "meta_mean_motion_ddot": 0,
        "tle_line1": "1 66911U 98067XX  25354.64075390  .00051512  00000+0  81113-3 0  9996",
        "tle_line2": "2 66911  51.6313 103.0498 0003876 258.0568 101.9988 15.53054787  2831"
      },
      "geometry": {
        "type": "Point",
        "coordinates": [
          -139.85724994509994,
          47.525149705708984
        ]
      }
    },
    {
      "type": "Feature",
      "properties": {
        "norad_id": 66912,
        "name": "1998-067XY",
        "group": "stations",
        "lat": 40.30377472209976,
        "lon": 142.39987531427485,
        "alt_km": 408.03217575962117,
        "timestamp": "2025-12-21T05:44:50.325053+00:00",
        "meta_object_name": "1998-067XY",
        "meta_object_id": "1998-067XY",
        "meta_epoch": "2025-12-19T14:52:14.043072",
        "meta_mean_motion": 15.51780846,
        "meta_eccentricity": 0.0004012,
        "meta_inclination": 51.6307,
        "meta_ra_of_asc_node": 108.231,
        "meta_arg_of_pericenter": 260.881,
        "meta_mean_anomaly": 99.1725,
        "meta_ephemeris_type": 0,
        "meta_classification_type": "U",
        "meta_norad_cat_id": 66912,
        "meta_element_set_no": 999,
        "meta_rev_at_epoch": 267,
        "meta_bstar": 0.00063264,
        "meta_mean_motion_dot": 0.00038197,
        "meta_mean_motion_ddot": 0,
        "tle_line1": "1 66912U 98067XY  25353.61960698  .00038197  00000+0  63264-3 0  9998",
        "tle_line2": "2 66912  51.6307 108.2310 0004012 260.8810  99.1725 15.51780846  2678"
      },
      "geometry": {
        "type": "Point",
        "coordinates": [
          142.39987531427485,
          40.30377472209976
        ]
      }
    }
  ]
}